[{"OBJECT_NAME":"TIANMU-1 22","OBJECT_ID":"2023-208D","EPOCH":"2026-03-09T22:39:05.738688","MEAN_MOTION":15.29457749,"ECCENTRICITY":0.00031332,"INCLINATION":97.4379,"RA_OF_ASC_NODE":184.9419,"ARG_OF_PERICENTER":351.9312,"MEAN_ANOMALY":8.1877,"EPHEMERIS_TYPE":0,"CLASSIFICATION_TYPE":"U","NORAD_CAT_ID":58663,"ELEMENT_SET_NO":999,"REV_AT_EPOCH":12215,"BSTAR":0.00038239675,"MEAN_MOTION_DOT":0.00010851,"MEAN_MOTION_DDOT":0},{"OBJECT_NAME":"STARLINK-31135","OBJECT_ID":"2024-011G","EPOCH":"2026-03-09T23:23:14.938080","MEAN_MOTION":15.30175302,"ECCENTRICITY":9.97e-5,"INCLINATION":53.1624,"RA_OF_ASC_NODE":10.2627,"ARG_OF_PERICENTER":88.6341,"MEAN_ANOMALY":271.4774,"EPHEMERIS_TYPE":0,"CLASSIFICATION_TYPE":"U","NORAD_CAT_ID":58771,"ELEMENT_SET_NO":999,"REV_AT_EPOCH":12034,"BSTAR":0.00011418661,"MEAN_MOTION_DOT":3.022e-5,"MEAN_MOTION_DDOT":0}]
